[{"OBJECT_NAME":"STARLINK-31903","OBJECT_ID":"2024-097L","EPOCH":"2026-03-09T12:47:10.501152","MEAN_MOTION":15.27567682,"ECCENTRICITY":8.479e-5,"INCLINATION":43.0009,"RA_OF_ASC_NODE":268.2455,"ARG_OF_PERICENTER":264.0258,"MEAN_ANOMALY":96.0497,"EPHEMERIS_TYPE":0,"CLASSIFICATION_TYPE":"U","NORAD_CAT_ID":59845,"ELEMENT_SET_NO":999,"REV_AT_EPOCH":10197,"BSTAR":1.9519105e-5,"MEAN_MOTION_DOT":2.75e-6,"MEAN_MOTION_DDOT":0},{"OBJECT_NAME":"PELICAN-6","OBJECT_ID":"2025-276AP","EPOCH":"2026-03-09T16:58:12.890496","MEAN_MOTION":15.2637798,"ECCENTRICITY":0.0003569,"INCLINATION":97.4276,"RA_OF_ASC_NODE":144.2072,"ARG_OF_PERICENTER":157.8575,"MEAN_ANOMALY":202.2819,"EPHEMERIS_TYPE":0,"CLASSIFICATION_TYPE":"U","NORAD_CAT_ID":66703,"ELEMENT_SET_NO":999,"REV_AT_EPOCH":1533,"BSTAR":0.0029725783,"MEAN_MOTION_DOT":0.00077979,"MEAN_MOTION_DDOT":0}]
