STARLINK-31903          
1 59845U 24097L   26068.53276043  .00000275  00000+0  19519-4 0  9997
2 59845  43.0009 268.2455 0000847 264.0258  96.0497 15.27567682101979
PELICAN-6               
1 66703U 25276AP  26068.70709364  .00077979  00000+0  29726-2 0  9998
2 66703  97.4276 144.2072 0003569 157.8575 202.2819 15.26377980 15334
